      2.10          N: GNSS NAV DATA                        RINEX VERSION / TYPE
fic2rin                                 08/04/2021 00:17:09 PGM / RUN BY / DATE
                                                            END OF HEADER
25 21  8  3 16  0  0.0 1.848526299000e-04 6.593836587854e-12 0.000000000000e+00
    9.900000000000e+01 8.090625000000e+01 4.268034923643e-09 8.426197154533e-01
    4.040077328682e-06 9.824005188420e-03 9.013339877129e-06 5.153599748611e+03
    2.304000000000e+05-1.192092895508e-07-5.131340115313e-01 3.166496753693e-08
    9.602596612979e-01 2.044062500000e+02 9.715014465005e-01-8.052835432919e-09
   -1.314340461842e-10 1.000000000000e+00 2.169000000000e+03 0.000000000000e+00
    3.400000000000e+00 0.000000000000e+00 5.587935447693e-09 9.900000000000e+01
    2.232000000000e+05 4.000000000000e+00
26 21  8  3 16  0  0.0 1.183450222015e-04 4.433786671143e-12 0.000000000000e+00
    9.800000000000e+01 6.396875000000e+01 4.745197656529e-09 1.723560195486e-01
    3.451481461525e-06 5.956504843198e-03 8.614733815193e-06 5.153604774475e+03
    2.304000000000e+05 1.080334186554e-07-5.564454260484e-01 4.097819328308e-08
    9.411294794890e-01 2.021875000000e+02 2.982381189976e-01-8.187841056445e-09
   -6.500270762369e-11 1.000000000000e+00 2.169000000000e+03 0.000000000000e+00
    3.400000000000e+00 0.000000000000e+00 6.984919309616e-09 9.800000000000e+01
    2.232000000000e+05 4.000000000000e+00
18 21  8  3 16  0  0.0 3.359741531312e-04-3.183231456205e-12 0.000000000000e+00
    9.600000000000e+01-8.725000000000e+01 4.476615040414e-09 2.742112971463e+00
   -4.410743713379e-06 1.754750963300e-03 4.580244421959e-06 5.153657030106e+03
    2.304000000000e+05-4.097819328308e-08 1.605167794802e+00 4.470348358154e-08
    9.685578402760e-01 2.966875000000e+02 2.895715008828e+00-8.120695402416e-09
   -3.321566928024e-11 1.000000000000e+00 2.169000000000e+03 0.000000000000e+00
    2.400000000000e+00 0.000000000000e+00-8.381903171539e-09 8.640000000000e+02
    2.232000000000e+05 4.000000000000e+00
28 21  8  3 16  0  0.0 5.264133214951e-04-6.934897101019e-12 0.000000000000e+00
    7.500000000000e+01 9.450000000000e+01 4.074098273975e-09-1.134811847114e+00
    5.079433321953e-06 1.746008661576e-02 8.380040526390e-06 5.153731607437e+03
    2.304000000000e+05-2.868473529816e-07-4.165832659652e-01 1.844018697739e-07
    9.720992211602e-01 2.318750000000e+02-1.343514009288e+00-8.019262605905e-09
    1.203621564241e-10 1.000000000000e+00 2.169000000000e+03 0.000000000000e+00
    3.400000000000e+00 6.300000000000e+01-1.117587089539e-08 7.500000000000e+01
    2.232000000000e+05 4.000000000000e+00
25 21  8  3 15 59 44.0 1.848521642387e-04 6.593836587854e-12 0.000000000000e+00
    1.400000000000e+01 8.090625000000e+01 4.268034923643e-09 8.402865030200e-01
    4.040077328682e-06 9.824008331634e-03 9.013339877129e-06 5.153599754333e+03
    2.303840000000e+05-1.192092895508e-07-5.131338696282e-01 3.166496753693e-08
    9.602596686124e-01 2.044062500000e+02 9.715007413740e-01-8.052835432919e-09
   -1.314340461842e-10 1.000000000000e+00 2.169000000000e+03 0.000000000000e+00
    2.400000000000e+00 0.000000000000e+00 5.587935447693e-09 1.400000000000e+01
    2.245200000000e+05 4.000000000000e+00
26 21  8  3 15 59 44.0 1.183454878628e-04 4.547473508865e-12 0.000000000000e+00
    3.000000000000e+00 6.396875000000e+01 4.744840498795e-09 1.700225437900e-01
    3.451481461525e-06 5.956511129625e-03 8.614733815193e-06 5.153604780197e+03
    2.303840000000e+05 1.080334186554e-07-5.564452943857e-01 4.097819328308e-08
    9.411294955811e-01 2.021875000000e+02 2.982377678973e-01-8.187841056445e-09
   -6.500270762369e-11 1.000000000000e+00 2.169000000000e+03 0.000000000000e+00
    2.400000000000e+00 0.000000000000e+00 6.984919309616e-09 3.000000000000e+00
    2.248200000000e+05 4.000000000000e+00
21 21  8  3 15 59 44.0 1.351251266897e-04 2.160049916711e-12 0.000000000000e+00
    4.000000000000e+00-6.384375000000e+01 4.763769858707e-09-1.527454246589e+00
   -2.969056367874e-06 2.403918479104e-02 5.139037966728e-06 5.153659261703e+03
    2.303840000000e+05-5.830079317093e-07 1.508821800713e+00 2.663582563400e-07
    9.575799962162e-01 2.856562500000e+02-1.104550340658e+00-8.397849804153e-09
   -1.035757429169e-11 1.000000000000e+00 2.169000000000e+03 0.000000000000e+00
    2.400000000000e+00 0.000000000000e+00-1.024454832077e-08 4.000000000000e+00
    2.301600000000e+05 4.000000000000e+00
21 21  8  3 17 59 44.0 1.351409591734e-04 2.160049916711e-12 0.000000000000e+00
    1.300000000000e+01-7.050000000000e+01 4.805914471343e-09-4.773056073173e-01
   -3.924593329430e-06 2.403806371149e-02 4.509463906288e-06 5.153656398773e+03
    2.375840000000e+05-3.594905138016e-07 1.508758681649e+00-1.695007085800e-07
    9.575800971575e-01 2.955625000000e+02-1.104506126885e+00-8.661075054255e-09
    1.571494030463e-10 1.000000000000e+00 2.169000000000e+03 0.000000000000e+00
    2.400000000000e+00 0.000000000000e+00-1.024454832077e-08 1.300000000000e+01
    2.304000000000e+05 4.000000000000e+00
25 21  8  3 17 59 44.0 1.848991960287e-04 6.593836587854e-12 0.000000000000e+00
    1.500000000000e+01 9.103125000000e+01 4.216604209919e-09 1.890648276290e+00
    4.587695002556e-06 9.823579457588e-03 8.832663297653e-06 5.153597114563e+03
    2.375840000000e+05-1.527369022369e-07-5.131921186374e-01-1.750886440277e-07
    9.602594667298e-01 2.069687500000e+02 9.713645100537e-01-7.906043604165e-09
   -4.964492505326e-11 1.000000000000e+00 2.169000000000e+03 0.000000000000e+00
    2.400000000000e+00 0.000000000000e+00 5.587935447693e-09 1.500000000000e+01
    2.304000000000e+05 4.000000000000e+00
26 21  8  3 17 59 44.0 1.183776184916e-04 4.433786671143e-12 0.000000000000e+00
    4.600000000000e+01 7.843750000000e+01 4.600191616446e-09 1.219954150387e+00
    4.144385457039e-06 5.958247929811e-03 9.106472134590e-06 5.153609428406e+03
    2.375840000000e+05-6.891787052155e-08-5.565030972049e-01 7.078051567078e-08
    9.411288884701e-01 1.920937500000e+02 2.985286896382e-01-8.087479733136e-09
   -1.889364413897e-10 1.000000000000e+00 2.169000000000e+03 0.000000000000e+00
    2.400000000000e+00 0.000000000000e+00 6.984919309616e-09 4.600000000000e+01
    2.304000000000e+05 4.000000000000e+00
 2 21  8  3 18  0  0.0-6.239814683795e-04-2.501110429876e-12 0.000000000000e+00
    3.900000000000e+01-8.531250000000e+01 4.451971156754e-09-2.560718853842e+00
   -4.183501005173e-06 2.021501061972e-02 3.999099135399e-06 5.153731496811e+03
    2.376000000000e+05 1.937150955200e-07 1.509122004669e+00 2.142041921616e-07
    9.634025242793e-01 2.968437500000e+02-1.502398693576e+00-7.836397845996e-09
    6.607418082628e-11 1.000000000000e+00 2.169000000000e+03 0.000000000000e+00
    2.400000000000e+00 0.000000000000e+00-1.769512891769e-08 3.900000000000e+01
    2.304000000000e+05 4.000000000000e+00
 1 21  8  3 18  0  0.0 6.085075438023e-04-1.136868377216e-11 0.000000000000e+00
    9.900000000000e+01-8.162500000000e+01 4.035525238682e-09-2.846387191566e+00
   -4.395842552185e-06 1.107401610352e-02 4.755333065987e-06 5.153681680679e+03
    2.376000000000e+05 8.009374141693e-08 1.594376488889e+00-2.309679985046e-07
    9.848197224944e-01 3.006250000000e+02 8.805666166884e-01-7.781038397196e-09
    3.214419607765e-12 1.000000000000e+00 2.169000000000e+03 0.000000000000e+00
    3.400000000000e+00 0.000000000000e+00 5.122274160385e-09 9.900000000000e+01
    2.304000000000e+05 4.000000000000e+00
 5 21  8  3 18  0  0.0-4.996126517653e-05-1.250555214938e-12 0.000000000000e+00
    7.100000000000e+01-5.456250000000e+01 4.592691304027e-09-2.416502474628e-01
   -2.758577466011e-06 6.101411534473e-03 9.266659617424e-06 5.153566499710e+03
    2.376000000000e+05-5.587935447693e-08 2.593789945671e+00 5.960464477539e-08
    9.573847156705e-01 1.975312500000e+02 9.564231454687e-01-8.042835016362e-09
    2.046513816944e-10 1.000000000000e+00 2.169000000000e+03 0.000000000000e+00
    2.400000000000e+00 0.000000000000e+00-1.117587089539e-08 7.100000000000e+01
    2.304000000000e+05 4.000000000000e+00
 3 21  8  3 18  0  0.0-2.416316419840e-04-1.284661266254e-11 0.000000000000e+00
    4.000000000000e+01-5.684375000000e+01 4.139458139333e-09 2.408116652227e+00
   -3.075227141380e-06 3.770733950660e-03 9.203329682350e-06 5.153554985046e+03
    2.376000000000e+05-1.862645149231e-08 2.631529330514e+00-7.823109626770e-08
    9.704370316948e-01 2.058750000000e+02 9.107489968314e-01-7.665676449051e-09
    1.910793877949e-10 1.000000000000e+00 2.169000000000e+03 0.000000000000e+00
    2.400000000000e+00 0.000000000000e+00 1.862645149231e-09 4.000000000000e+01
    2.304000000000e+05 4.000000000000e+00
16 21  8  3 18  0  0.0-3.677522763610e-04-6.252776074689e-12 0.000000000000e+00
    4.200000000000e+01 7.946875000000e+01 3.973736950666e-09 2.827945975415e-01
    4.310160875320e-06 1.216492161620e-02 8.489936590195e-06 5.153740657806e+03
    2.376000000000e+05-1.862645149231e-09-4.201812003364e-01 2.346932888031e-07
    9.729937121793e-01 2.225937500000e+02 6.801152217803e-01-7.912472443380e-09
   -4.178745490094e-11 1.000000000000e+00 2.169000000000e+03 0.000000000000e+00
    2.400000000000e+00 0.000000000000e+00-1.024454832077e-08 4.200000000000e+01
    2.304000000000e+05 4.000000000000e+00
15 21  8  3 18  0  0.0-1.309453509748e-04 2.728484105319e-12 0.000000000000e+00
    2.600000000000e+01 3.625000000000e+00 5.390581682221e-09-1.502428139191e+00
    2.738088369370e-07 1.342186972033e-02 6.571412086487e-06 5.153648553848e+03
    2.376000000000e+05 3.390014171600e-07-2.723506861038e+00 8.009374141693e-08
    9.294464577128e-01 2.341875000000e+02 1.006122418111e+00-8.231057142283e-09
    1.560779298437e-10 1.000000000000e+00 2.169000000000e+03 0.000000000000e+00
    2.400000000000e+00 0.000000000000e+00-1.071020960808e-08 2.600000000000e+01
    2.304000000000e+05 4.000000000000e+00
